NORAD_CAT_ID,OBJECT_NAME,OBJECT_TYPE,EPOCH,MEAN_MOTION,ECCENTRICITY,INCLINATION,RA_OF_ASC_NODE,ARG_OF_PERICENTER,MEAN_ANOMALY,BSTAR,MEAN_MOTION_DOT,MEAN_MOTION_DDOT,TLE_LINE0,TLE_LINE1,TLE_LINE2,SEMIMAJOR_AXIS,PERIOD,APOGEE,PERIGEE,DECAYED
55439.0,STARLINK-5634,PAYLOAD,2023-12-02 13:51:15,14.98360613,0.0002288,70.0038,32.5016,249.3569,110.7345,0.00073879,8.74e-05,0.0,0 STARLINK-5634,1 55439U 23014BA  23336.57726476  .00008740  00000-0  73879-3 0  9993,2 55439  70.0038  32.5016 0002288 249.3569 110.7345 14.98360613 47026,6950.098,96.105,573.553,570.373,0.0
55439.0,STARLINK-5634,PAYLOAD,2023-12-03 04:16:30,14.98312838,0.0002713,70.0017,30.9852,268.725,91.3598,-0.0001965,-2.436e-05,0.0,0 STARLINK-5634,1 55439U 23014BA  23337.17812695 -.00002436  00000-0 -19650-3 0  9994,2 55439  70.0017  30.9852 0002713 268.7250  91.3598 14.98312838 46173,6950.246,96.108,573.997,570.225,0.0
55439.0,STARLINK-5634,PAYLOAD,2023-12-03 12:17:11,14.98295476,0.0002534,70.003,30.1454,245.1856,114.904,-0.00047093,-5.702e-05,0.0,0 STARLINK-5634,1 55439U 23014BA  23337.51193964 -.00005702  00000-0 -47093-3 0  9994,2 55439  70.0030  30.1454 0002534 245.1856 114.9040 14.98295476 46228,6950.3,96.109,573.926,570.403,0.0
55439.0,STARLINK-5634,PAYLOAD,2023-12-03 13:53:19,14.98297609,0.0002776,70.0019,29.9752,258.0491,102.0357,-0.0004703,-5.695e-05,0.0,0 STARLINK-5634,1 55439U 23014BA  23337.57869934 -.00005695  00000-0 -47030-3 0  9999,2 55439  70.0019  29.9752 0002776 258.0491 102.0357 14.98297609 47172,6950.293,96.109,574.087,570.229,0.0
55439.0,STARLINK-5634,PAYLOAD,2023-12-04 04:18:31,14.98322426,0.0002538,70.003,28.4607,255.994,104.0937,-0.00031063,-3.796e-05,0.0,0 STARLINK-5634,1 55439U 23014BA  23338.17952994 -.00003796  00000-0 -31063-3 0  9994,2 55439  70.0030  28.4607 0002538 255.9940 104.0937 14.98322426 46327,6950.216,96.107,573.845,570.317,0.0
55439.0,STARLINK-5634,PAYLOAD,2023-12-04 12:19:12,14.98331523,0.0002414,70.0016,27.6191,255.5196,104.5695,-0.00015298,-1.918e-05,0.0,0 STARLINK-5634,1 55439U 23014BA  23338.51333365 -.00001918  00000-0 -15298-3 0  9993,2 55439  70.0016  27.6191 0002414 255.5196 104.5695 14.98331523 47316,6950.188,96.107,573.731,570.375,0.0
55439.0,STARLINK-5634,PAYLOAD,2023-12-05 02:44:26,14.9830048,0.0002244,70.0019,26.105,250.7893,109.3024,0.00041183,4.82e-05,0.0,0 STARLINK-5634,1 55439U 23014BA  23339.11419055  .00004820  00000-0  41183-3 0  9996,2 55439  70.0019  26.1050 0002244 250.7893 109.3024 14.98300480 46461,6950.284,96.109,573.709,570.59,0.0
55439.0,STARLINK-5634,PAYLOAD,2023-12-05 10:45:04,14.98330059,0.0002147,70.0013,25.263,258.4979,101.5939,0.00060846,7.174e-05,0.0,0 STARLINK-5634,1 55439U 23014BA  23339.44797445  .00007174  00000-0  60846-3 0  9996,2 55439  70.0013  25.2630 0002147 258.4979 101.5939 14.98330059 46511,6950.193,96.107,573.55,570.566,0.0
55439.0,STARLINK-5634,PAYLOAD,2023-12-05 12:21:13,14.98316446,0.000246,70.0015,25.0948,247.4907,112.5992,0.00054158,6.373e-05,0.0,0 STARLINK-5634,1 55439U 23014BA  23339.51474384  .00006373  00000-0  54158-3 0  9997,2 55439  70.0015  25.0948 0002460 247.4907 112.5992 14.98316446 47460,6950.235,96.108,573.81,570.39,0.0
55439.0,STARLINK-5634,PAYLOAD,2023-12-06 04:22:33,14.98347228,0.0002674,70.0049,23.4137,258.1431,101.9428,0.00034439,4.02e-05,0.0,0 STARLINK-5634,1 55439U 23014BA  23340.18232666  .00004020  00000-0  34439-3 0  9994,2 55439  70.0049  23.4137 0002674 258.1431 101.9428 14.98347228 46622,6950.14,96.106,573.863,570.146,0.0
55439.0,STARLINK-5634,PAYLOAD,2023-12-06 10:47:05,14.98340327,0.0002381,70.0042,22.7419,227.529,132.5668,0.00035769,4.179e-05,0.0,0 STARLINK-5634,1 55439U 23014BA  23340.44936904  .00004179  00000-0  35769-3 0  9991,2 55439  70.0042  22.7419 0002381 227.5290 132.5668 14.98340327 46661,6950.161,96.106,573.681,570.371,0.0
55439.0,STARLINK-5634,PAYLOAD,2023-12-06 12:23:13,14.98346435,0.0002435,70.0015,22.57,271.2203,88.8677,0.00035699,4.171e-05,0.0,0 STARLINK-5634,1 55439U 23014BA  23340.51612453  .00004171  00000-0  35699-3 0  9993,2 55439  70.0015  22.5700 0002435 271.2203  88.8677 14.98346435 47617,6950.142,96.106,573.699,570.315,0.0
55439.0,STARLINK-5634,PAYLOAD,2023-12-07 04:24:34,14.98340329,0.0002468,70.0037,20.8896,230.0459,130.0483,0.00013674,1.539e-05,0.0,0 STARLINK-5634,1 55439U 23014BA  23341.18372721  .00001539  00000-0  13674-3 0  9992,2 55439  70.0037  20.8896 0002468 230.0459 130.0483 14.98340329 46777,6950.161,96.106,573.741,570.311,0.0
55439.0,STARLINK-5634,PAYLOAD,2023-12-07 10:49:06,14.9833095,0.00025,70.0024,20.2148,236.9866,123.1053,-1.9969e-05,-3.31e-06,0.0,0 STARLINK-5634,1 55439U 23014BA  23341.45077422 -.00000331  00000-0 -19969-4 0  9997,2 55439  70.0024  20.2148 0002500 236.9866 123.1053 14.98330950 46811,6950.19,96.107,573.793,570.317,0.0
55439.0,STARLINK-5634,PAYLOAD,2023-12-07 12:25:14,14.98332385,0.0002588,70.0016,20.0454,249.0239,111.0643,-2.4748e-05,-3.88e-06,0.0,0 STARLINK-5634,1 55439U 23014BA  23341.51753305 -.00000388  00000-0 -24748-4 0  9998,2 55439  70.0016  20.0454 0002588 249.0239 111.0643 14.98332385 47765,6950.186,96.107,573.849,570.252,0.0
55439.0,STARLINK-5634,PAYLOAD,2023-12-08 04:26:34,14.9834377,0.0003193,69.9997,18.3597,267.1179,92.9615,-0.00010392,-1.333e-05,0.0,0 STARLINK-5634,1 55439U 23014BA  23342.18512135 -.00001333  00000-0 -10392-3 0  9996,2 55439  69.9997  18.3597 0003193 267.1179  92.9615 14.98343770 46928,6950.15,96.106,574.234,569.796,0.0
55439.0,STARLINK-5634,PAYLOAD,2023-12-08 12:27:14,14.98345207,0.0003125,69.9999,17.5183,265.114,94.9662,-8.2468e-05,-1.077e-05,0.0,0 STARLINK-5634,1 55439U 23014BA  23342.51891678 -.00001077  00000-0 -82468-4 0  9994,2 55439  69.9999  17.5183 0003125 265.1140  94.9662 14.98345207 47914,6950.146,96.106,574.183,569.839,0.0
55439.0,STARLINK-5634,PAYLOAD,2023-12-09 04:28:35,14.98333004,0.0003112,70.0,15.8352,262.5929,97.4877,0.00010606,1.173e-05,0.0,0 STARLINK-5634,1 55439U 23014BA  23343.18651694  .00001173  00000-0  10606-3 0  9999,2 55439  70.0000  15.8352 0003112 262.5929  97.4877 14.98333004 47076,6950.184,96.107,574.211,569.886,0.0
55439.0,STARLINK-5634,PAYLOAD,2023-12-09 12:29:15,14.98333462,0.0003137,69.9999,14.9934,264.3038,95.7764,9.9506e-05,1.095e-05,0.0,0 STARLINK-5634,1 55439U 23014BA  23343.52031639  .00001095  00000-0  99506-4 0  9998,2 55439  69.9999  14.9934 0003137 264.3038  95.7764 14.98333462 48068,6950.182,96.107,574.227,569.867,0.0
55439.0,STARLINK-5634,PAYLOAD,2023-12-10 12:31:16,14.98332822,0.0003055,70.0,12.4681,265.8647,94.2163,4.2135e-05,4.1e-06,0.0,0 STARLINK-5634,1 55439U 23014BA  23344.52171651  .00000410  00000-0  42135-4 0  9994,2 55439  70.0000  12.4681 0003055 265.8647  94.2163 14.98332822 48210,6950.184,96.107,574.172,569.926,0.0
55439.0,STARLINK-5634,PAYLOAD,2023-12-11 10:57:09,14.98324579,0.0003222,69.9998,10.1117,265.281,94.7981,0.00017777,2.028e-05,0.0,0 STARLINK-5634,1 55439U 23014BA  23345.45635760  .00002028  00000-0  17777-3 0  9993,2 55439  69.9998  10.1117 0003222 265.2810  94.7981 14.98324579 48352,6950.21,96.107,574.314,569.835,0.0
55439.0,STARLINK-5634,PAYLOAD,2023-12-12 10:59:09,14.98332009,0.0003081,69.9998,7.5866,265.9289,94.1518,5.7716e-05,5.96e-06,0.0,0 STARLINK-5634,1 55439U 23014BA  23346.45775460  .00000596  00000-0  57716-4 0  9992,2 55439  69.9998   7.5866 0003081 265.9289  94.1518 14.98332009 47562,6950.187,96.107,574.193,569.91,0.0
55439.0,STARLINK-5634,PAYLOAD,2023-12-13 11:01:11,14.98329743,0.0003005,69.9999,5.0619,263.677,96.4047,4.6634e-05,4.63e-06,0.0,0 STARLINK-5634,1 55439U 23014BA  23347.45915618  .00000463  00000-0  46634-4 0  9994,2 55439  69.9999   5.0619 0003005 263.6770  96.4047 14.98329743 47718,6950.194,96.107,574.147,569.97,0.0
55439.0,STARLINK-5634,PAYLOAD,2023-12-14 11:03:11,14.98332094,0.0002943,70.0,2.5367,262.6924,97.3901,6.6272e-05,6.98e-06,0.0,0 STARLINK-5634,1 55439U 23014BA  23348.46055430  .00000698  00000-0  66272-4 0  9993,2 55439  70.0000   2.5367 0002943 262.6924  97.3901 14.98332094 47864,6950.186,96.107,574.097,570.006,0.0
55439.0,STARLINK-5634,PAYLOAD,2023-12-15 11:05:13,14.98328516,0.0002928,69.9999,0.0118,264.1191,95.9634,4.3855e-05,4.3e-06,0.0,0 STARLINK-5634,1 55439U 23014BA  23349.46195741  .00000430  00000-0  43855-4 0  9990,2 55439  69.9999   0.0118 0002928 264.1191  95.9634 14.98328516 48010,6950.197,96.107,574.097,570.027,0.0
55439.0,STARLINK-5634,PAYLOAD,2023-12-16 11:07:13,14.98332607,0.0002888,69.9998,357.4866,266.4739,93.609,5.534e-05,5.67e-06,0.0,0 STARLINK-5634,1 55439U 23014BA  23350.46335534  .00000567  00000-0  55340-4 0  9991,2 55439  69.9998 357.4866 0002888 266.4739  93.6090 14.98332607 48169,6950.185,96.107,574.057,570.043,0.0
55439.0,STARLINK-5634,PAYLOAD,2023-12-17 09:33:06,14.98347571,0.0002409,70.0,355.1301,257.6201,102.4688,-0.00020365,-2.523e-05,0.0,0 STARLINK-5634,1 55439U 23014BA  23351.39799087 -.00002523  00000-0 -20365-3 0  9995,2 55439  70.0000 355.1301 0002409 257.6201 102.4688 14.98347571 49248,6950.139,96.106,573.678,570.329,0.0
55439.0,STARLINK-5634,PAYLOAD,2023-12-17 20:46:02,14.98335204,0.0002845,69.9999,353.9517,265.1944,94.889,0.00012498,1.399e-05,0.0,0 STARLINK-5634,1 55439U 23014BA  23351.86531213  .00001399  00000-0  12498-3 0  9998,2 55439  69.9999 353.9517 0002845 265.1944  94.8890 14.98335204 49316,6950.177,96.107,574.019,570.064,0.0
55439.0,STARLINK-5634,PAYLOAD,2023-12-18 03:10:35,14.9833666,0.0002837,69.9999,353.2784,265.2474,94.8361,0.00011008,1.221e-05,0.0,0 STARLINK-5634,1 55439U 23014BA  23352.13235090  .00001221  00000-0  11008-3 0  9993,2 55439  69.9999 353.2784 0002837 265.2474  94.8361 14.98336660 48415,6950.172,96.107,574.009,570.066,0.0
55439.0,STARLINK-5634,PAYLOAD,2023-12-18 09:35:07,14.98338922,0.0002794,70.0,352.6049,264.6849,95.3991,0.00013421,1.509e-05,0.0,0 STARLINK-5634,1 55439U 23014BA  23352.39938790  .00001509  00000-0  13421-3 0  9998,2 55439  70.0000 352.6049 0002794 264.6849  95.3991 14.98338922 49395,6950.165,96.106,573.972,570.088,0.0
